IRIDIUM 36              
1 24967U 97056C   25014.58770746  .00000608  00000+0  19733-3 0  9990
2 24967  86.3948 237.4759 0002068  92.9468 267.1966 14.37352469430153
IRIDIUM 39              
1 25042U 97069D   25014.75746858  .00000974  00000+0  25179-3 0  9992
2 25042  86.3906 276.9232 0020114  97.6186 262.7303 14.48824083427001
IRIDIUM 38              
1 25043U 97069E   25014.31647622  .00000757  00000+0  24484-3 0  9991
2 25043  86.3967 297.9185 0000795 140.1995 219.9261 14.37857329423846
IRIDIUM 42              
1 25077U 97077A   25014.34376765  .00000705  00000+0  23556-3 0  9999
2 25077  86.3976 303.8886 0001501  86.1510 273.9859 14.36113055419114
IRIDIUM 44              
1 25078U 97077B   25014.29567551  .00000725  00000+0  22414-3 0  9993
2 25078  86.3957 286.2324 0002856 124.7517 235.3951 14.39981931421550
IRIDIUM 45              
1 25104U 97082A   25014.34073203  .00028504  00000+0  12237-2 0  9997
2 25104  86.3641 122.1836 0133322 184.6609 175.3403 15.14762381428693
IRIDIUM 24              
1 25105U 97082B   25014.39631154  .00000889  00000+0  26596-3 0  9998
2 25105  86.3948 145.5090 0010162 218.2005 141.8476 14.41813046421050
IRIDIUM 51              
1 25262U 98018A   25014.81041332  .00031997  00000+0  99641-3 0  9997
2 25262  86.3919 131.0177 0111128 114.4144 246.8748 15.27185741423748
